ONEWEB-0473             
1 51653U 22012AH  26183.52577018 -.00003982  00000+0 -11447-1 0  9993
2 51653  87.8815  33.2202 0001688 142.1714 217.9532 13.10382915211314
ONEWEB-0474             
1 51654U 22012AJ  26183.59366394 -.00000068  00000+0 -23081-3 0  9995
2 51654  87.8824  33.1926 0001515  86.0291 274.1010 13.10370367211316
ONEWEB-0475             
1 51655U 22012AK  26183.48550187  .00000078  00000+0  16865-3 0  9990
2 51655  87.9133   2.8288 0001169  93.3587 266.7679 13.17647174215704
ONEWEB-0490             
1 54113U 22138A   26183.60121400  .00000033  00000+0  50961-4 0  9994
2 54113  87.9191 301.8977 0001878 105.9521 254.1819 13.19725592178867
ONEWEB-0492             
1 54114U 22138B   26183.32321060  .00000090  00000+0  19225-3 0  9998
2 54114  87.9182 301.9534 0002082 106.7443 253.3918 13.19727402178838
ONEWEB-0495             
1 54115U 22138C   26183.60437315 -.00000001  00000+0 -35291-4 0  9997
2 54115  87.9181 301.8999 0001747 121.0260 239.1045 13.19725843178858
ONEWEB-0497             
1 54116U 22138D   26183.61700944  .00000053  00000+0  10046-3 0  9995
2 54116  87.9189 301.8905 0001918 103.5474 256.5872 13.19726271178842
ONEWEB-0499             
1 54117U 22138E   26183.60040109  .00000032  00000+0  46378-4 0  9990
2 54117  87.9183 301.9018 0001750 105.5945 254.5381 13.19727434178858
ONEWEB-0500             
1 54118U 22138F   26183.60279650  .00000023  00000+0  25937-4 0  9994
2 54118  87.9189 301.8966 0002036 100.2702 259.8660 13.19724973178861
ONEWEB-0501             
1 54119U 22138G   26183.55699465  .00000034  00000+0  51491-4 0  9995
2 54119  87.9190 301.9056 0001747 112.8869 247.2449 13.19725381178833
ONEWEB-0502             
1 54120U 22138H   26183.61858756  .00000016  00000+0  76875-5 0  9998
2 54120  87.9192 301.8823 0001717 104.7851 255.3472 13.19725182178864
ONEWEB-0503             
1 54121U 22138J   26183.60753179  .00000046  00000+0  82142-4 0  9997
2 54121  87.9193 301.8906 0001789  93.8340 266.2997 13.19725980178856
ONEWEB-0504             
1 54122U 22138K   26183.59489733  .00000119  00000+0  26525-3 0  9991
2 54122  87.9191 301.8979 0001708 103.3494 256.7829 13.19726170178864
ONEWEB-0505             
1 54123U 22138L   26183.36427637  .00000082  00000+0  17273-3 0  9991
2 54123  87.9192 301.9443 0001644 112.8215 247.3092 13.19727304178811
ONEWEB-0506             
1 54124U 22138M   26183.56646726  .00000055  00000+0  10523-3 0  9997
2 54124  87.9191 301.9015 0001774 109.1724 250.9601 13.19725227178834
ONEWEB-0507             
1 54125U 22138N   26183.58699761  .00000165  00000+0  37889-3 0  9993
2 54125  87.9180 301.9082 0001893 106.4142 253.7199 13.19726685178880
ONEWEB-0508             
1 54126U 22138P   26183.58383920  .00000040  00000+0  66600-4 0  9997
2 54126  87.9182 301.9079 0001897 114.7652 245.3678 13.19725280178868
ONEWEB-0509             
1 54127U 22138Q   26183.55854427 -.00000902  00000+0 -22857-2 0  9993
2 54127  87.9197 301.9045 0001826 106.4023 253.7310 13.19728921178838
ONEWEB-0510             
1 54128U 22138R   26183.51063023  .00000095  00000+0  20284-3 0  9998
2 54128  87.9195 271.3826 0002260  88.7333 271.4060 13.20773945181306
ONEWEB-0511             
1 54129U 22138S   26183.55539213  .00000060  00000+0  11842-3 0  9994
2 54129  87.9189 301.9072 0001652  97.2519 262.8802 13.19727640178862
ONEWEB-0512             
1 54130U 22138T   26183.62331839 -.00000025  00000+0 -94525-4 0  9991
2 54130  87.9182 301.8977 0001643 106.7308 253.4005 13.19726330178846
ONEWEB-0513             
1 54131U 22138U   26183.39522881 -.00000024  00000+0 -92542-4 0  9991
2 54131  87.9189 301.8851 0001040 111.8544 248.2700 13.20269304178721
ONEWEB-0514             
1 54132U 22138V   26183.56330133  .00000027  00000+0  35218-4 0  9996
2 54132  87.9190 301.9048 0001990  96.6626 263.4733 13.19725887178858
ONEWEB-0515             
1 54133U 22138W   26183.49718628  .00000017  00000+0  97314-5 0  9993
2 54133  87.9200 271.3805 0002927  97.7162 262.4304 13.20771108181328
ONEWEB-0516             
1 54134U 22138X   26183.61383414  .00000062  00000+0  12337-3 0  9999
2 54134  87.9185 301.8997 0002008 104.3584 255.7771 13.19726541178862
ONEWEB-0517             
1 54135U 22138Y   26183.59331481  .00000079  00000+0  16489-3 0  9994
2 54135  87.9190 301.8974 0001764  92.1341 267.9994 13.19725534178860
ONEWEB-0518             
1 54136U 22138Z   26183.61224607  .00000021  00000+0  20225-4 0  9990
2 54136  87.9176 301.9021 0002036 105.5598 254.5759 13.19728900178866
ONEWEB-0519             
1 54137U 22138AA  26183.56171257 -.00000018  00000+0 -76719-4 0  9994
2 54137  87.9191 301.9048 0001802  95.3032 264.8306 13.19726733178866
ONEWEB-0520             
1 54138U 22138AB  26183.59647687  .00000066  00000+0  13322-3 0  9994
2 54138  87.9195 301.8980 0001833 108.4608 251.6724 13.19725675178855
ONEWEB-0521             
1 54139U 22138AC  26183.62963444 -.00000014  00000+0 -67969-4 0  9993
2 54139  87.9194 301.8800 0001837  93.4919 266.6424 13.19727002178802
