OBJECT_NAME,OBJECT_ID,EPOCH,MEAN_MOTION,ECCENTRICITY,INCLINATION,RA_OF_ASC_NODE,ARG_OF_PERICENTER,MEAN_ANOMALY,EPHEMERIS_TYPE,CLASSIFICATION_TYPE,NORAD_CAT_ID,ELEMENT_SET_NO,REV_AT_EPOCH,BSTAR,MEAN_MOTION_DOT,MEAN_MOTION_DDOT
ONEWEB-0473,2022-012AH,2026-07-02T12:37:06.543552,13.10382915,.00016886,87.8815,33.2202,142.1714,217.9532,0,U,51653,999,21131,-.11446598E-1,-.3982E-4,0
ONEWEB-0474,2022-012AJ,2026-07-02T14:14:52.564416,13.10370367,.00015151,87.8824,33.1926,86.0291,274.1010,0,U,51654,999,21131,-.23080917E-3,-.68E-6,0
ONEWEB-0475,2022-012AK,2026-07-02T11:39:07.361568,13.17647174,.00011693,87.9133,2.8288,93.3587,266.7679,0,U,51655,999,21570,.16864872E-3,.78E-6,0
ONEWEB-0490,2022-138A,2026-07-02T14:25:44.889600,13.19725592,.00018781,87.9191,301.8977,105.9521,254.1819,0,U,54113,999,17886,.5096074E-4,.33E-6,0
ONEWEB-0492,2022-138B,2026-07-02T07:45:25.395840,13.19727402,.00020822,87.9182,301.9534,106.7443,253.3918,0,U,54114,999,17883,.19225378E-3,.9E-6,0
ONEWEB-0495,2022-138C,2026-07-02T14:30:17.840160,13.19725843,.00017471,87.9181,301.8999,121.0260,239.1045,0,U,54115,999,17885,-.35290533E-4,-.1E-7,0
ONEWEB-0497,2022-138D,2026-07-02T14:48:29.615616,13.19726271,.0001918,87.9189,301.8905,103.5474,256.5872,0,U,54116,999,17884,.10046387E-3,.53E-6,0
ONEWEB-0499,2022-138E,2026-07-02T14:24:34.654176,13.19727434,.00017507,87.9183,301.9018,105.5945,254.5381,0,U,54117,999,17885,.46377669E-4,.32E-6,0
ONEWEB-0500,2022-138F,2026-07-02T14:28:01.617600,13.19724973,.0002036,87.9189,301.8966,100.2702,259.8660,0,U,54118,999,17886,.25937018E-4,.23E-6,0
ONEWEB-0501,2022-138G,2026-07-02T13:22:04.337760,13.19725381,.00017475,87.9190,301.9056,112.8869,247.2449,0,U,54119,999,17883,.51490647E-4,.34E-6,0
ONEWEB-0502,2022-138H,2026-07-02T14:50:45.965184,13.19725182,.00017179,87.9192,301.8823,104.7851,255.3472,0,U,54120,999,17886,.7687488E-5,.16E-6,0
ONEWEB-0503,2022-138J,2026-07-02T14:34:50.746656,13.19725980,.00017892,87.9193,301.8906,93.8340,266.2997,0,U,54121,999,17885,.82142366E-4,.46E-6,0
ONEWEB-0504,2022-138K,2026-07-02T14:16:39.129312,13.19726170,.00017084,87.9191,301.8979,103.3494,256.7829,0,U,54122,999,17886,.26525472E-3,.119E-5,0
ONEWEB-0505,2022-138L,2026-07-02T08:44:33.478368,13.19727304,.00016444,87.9192,301.9443,112.8215,247.3092,0,U,54123,999,17881,.17273039E-3,.82E-6,0
ONEWEB-0506,2022-138M,2026-07-02T13:35:42.771264,13.19725227,.00017743,87.9191,301.9015,109.1724,250.9601,0,U,54124,999,17883,.10522916E-3,.55E-6,0
ONEWEB-0507,2022-138N,2026-07-02T14:05:16.593504,13.19726685,.00018938,87.9180,301.9082,106.4142,253.7199,0,U,54125,999,17888,.37888878E-3,.165E-5,0
ONEWEB-0508,2022-138P,2026-07-02T14:00:43.706880,13.19725280,.00018975,87.9182,301.9079,114.7652,245.3678,0,U,54126,999,17886,.66599765E-4,.4E-6,0
ONEWEB-0509,2022-138Q,2026-07-02T13:24:18.224928,13.19728921,.00018268,87.9197,301.9045,106.4023,253.7310,0,U,54127,999,17883,-.22856638E-2,-.902E-5,0
ONEWEB-0510,2022-138R,2026-07-02T12:15:18.451872,13.20773945,.00022606,87.9195,271.3826,88.7333,271.4060,0,U,54128,999,18130,.20284157E-3,.95E-6,0
ONEWEB-0511,2022-138S,2026-07-02T13:19:45.880032,13.19727640,.00016522,87.9189,301.9072,97.2519,262.8802,0,U,54129,999,17886,.11841676E-3,.6E-6,0
ONEWEB-0512,2022-138T,2026-07-02T14:57:34.708896,13.19726330,.00016434,87.9182,301.8977,106.7308,253.4005,0,U,54130,999,17884,-.94524546E-4,-.25E-6,0
ONEWEB-0513,2022-138U,2026-07-02T09:29:07.769184,13.20269304,.00010409,87.9189,301.8851,111.8544,248.2700,0,U,54131,999,17872,-.92542089E-4,-.24E-6,0
ONEWEB-0514,2022-138V,2026-07-02T13:31:09.234912,13.19725887,.00019909,87.9190,301.9048,96.6626,263.4733,0,U,54132,999,17885,.35217749E-4,.27E-6,0
ONEWEB-0515,2022-138W,2026-07-02T11:55:56.894592,13.20771108,.00029274,87.9200,271.3805,97.7162,262.4304,0,U,54133,999,18132,.9731379E-5,.17E-6,0
ONEWEB-0516,2022-138X,2026-07-02T14:43:55.269696,13.19726541,.00020081,87.9185,301.8997,104.3584,255.7771,0,U,54134,999,17886,.12336699E-3,.62E-6,0
ONEWEB-0517,2022-138Y,2026-07-02T14:14:22.399584,13.19725534,.00017647,87.9190,301.8974,92.1341,267.9994,0,U,54135,999,17886,.16489318E-3,.79E-6,0
ONEWEB-0518,2022-138Z,2026-07-02T14:41:38.060448,13.19728900,.00020361,87.9176,301.9021,105.5598,254.5759,0,U,54136,999,17886,.20224898E-4,.21E-6,0
ONEWEB-0519,2022-138AA,2026-07-02T13:28:51.966048,13.19726733,.0001802,87.9191,301.9048,95.3032,264.8306,0,U,54137,999,17886,-.76719077E-4,-.18E-6,0
ONEWEB-0520,2022-138AB,2026-07-02T14:18:55.601568,13.19725675,.00018338,87.9195,301.8980,108.4608,251.6724,0,U,54138,999,17885,.13322119E-3,.66E-6,0
ONEWEB-0521,2022-138AC,2026-07-02T15:06:40.415616,13.19727002,.00018378,87.9194,301.8800,93.4919,266.6424,0,U,54139,999,17880,-.67968831E-4,-.14E-6,0
